YAM-7                   
1 60504U 24149AN  26068.71799904  .00009009  00000+0  30984-3 0  9997
2 60504  97.3828 149.4631 0001973 296.5121  63.5918 15.30304554 86835
STARLINK-32326          
1 61674U 24193P   26068.78349126  .00000447  00000+0  27217-4 0  9992
2 61674  53.1599  90.3811 0001095  96.0061 264.1064 15.30191531 76541
